NORAD_CAT_ID,OBJECT_NAME,OBJECT_TYPE,EPOCH,MEAN_MOTION,ECCENTRICITY,INCLINATION,RA_OF_ASC_NODE,ARG_OF_PERICENTER,MEAN_ANOMALY,BSTAR,MEAN_MOTION_DOT,MEAN_MOTION_DDOT,TLE_LINE0,TLE_LINE1,TLE_LINE2,SEMIMAJOR_AXIS,PERIOD,APOGEE,PERIGEE,DECAYED
52686.0,STARLINK-4005,PAYLOAD,2022-09-11 22:00:00,15.08836989,0.0001751,53.2155,106.7955,54.9234,125.2215,0.00079432,0.00012375,0.0,0 STARLINK-4005,1 52686U 22053AG  22254.91667824  .00012375  00000-0  79432-3 0  9993,2 52686  53.2155 106.7955 0001751  54.9234 125.2215 15.08836989  1303,6917.89,95.438,540.966,538.543,0.0
52686.0,STARLINK-4005,PAYLOAD,2022-09-12 04:00:00,15.08862681,0.0001698,53.2152,105.6727,52.9758,45.8494,-0.003034,-0.00048281,0.0,0 STARLINK-4005,1 52686U 22053AG  22255.16667824 -.00048281  00000-0 -30340-2 0  9992,2 52686  53.2152 105.6727 0001698  52.9758  45.8494 15.08862681 18340,6917.811,95.436,540.851,538.501,0.0
52686.0,STARLINK-4005,PAYLOAD,2022-09-12 14:00:01,15.08827958,0.0001511,53.2156,103.8008,61.6575,141.6682,0.0015977,0.00025222,0.0,0 STARLINK-4005,1 52686U 22053AG  22255.58334491  .00025222  00000-0  15977-2 0  9996,2 52686  53.2156 103.8008 0001511  61.6575 141.6682 15.08827958  1304,6917.917,95.438,540.827,538.737,0.0
52686.0,STARLINK-4005,PAYLOAD,2022-09-12 22:00:00,15.08829599,0.0001662,53.2154,102.306,53.5289,161.3889,0.0012315999999999,0.00019362,0.0,0 STARLINK-4005,1 52686U 22053AG  22255.91667824  .00019362  00000-0  12316-2 0  9994,2 52686  53.2154 102.3060 0001662  53.5289 161.3889 15.08829599 18458,6917.9119999999975,95.438,540.927,538.627,0.0
52686.0,STARLINK-4005,PAYLOAD,2022-09-13 14:00:01,15.08829187,0.0001403,53.2153,99.3115,60.5226,177.5842,0.0011600999999999,0.00018218,0.0,0 STARLINK-4005,1 52686U 22053AG  22256.58334491  .00018218  00000-0  11601-2 0  9994,2 52686  53.2153  99.3115 0001403  60.5226 177.5842 15.08829187  1302,6917.913000000001,95.438,540.749,538.808,0.0
52686.0,STARLINK-4005,PAYLOAD,2022-09-13 16:00:00,15.0884534,0.0001406,53.2157,98.9374,58.6838,272.3155,-0.00076575,-0.00012456,0.0,0 STARLINK-4005,1 52686U 22053AG  22256.66667824 -.00012456  00000-0 -76575-3 0  9994,2 52686  53.2157  98.9374 0001406  58.6838 272.3155 15.08845340 18564,6917.864000000001,95.437,540.702,538.756,0.0
52686.0,STARLINK-4005,PAYLOAD,2022-09-13 22:00:00,15.08848485,0.0001548,53.2163,97.8165,54.6133,195.0822,-0.0022541,-0.00035991,0.0,0 STARLINK-4005,1 52686U 22053AG  22256.91667824 -.00035991  00000-0 -22541-2 0  9994,2 52686  53.2163  97.8165 0001548  54.6133 195.0822 15.08848485  1307,6917.854,95.437,540.79,538.649,0.0
52686.0,STARLINK-4005,PAYLOAD,2022-09-14 14:00:01,15.08849654,0.0001528,53.2151,94.8222,62.4935,210.3791,-0.0018625,-0.00029815,0.0,0 STARLINK-4005,1 52686U 22053AG  22257.58334491 -.00029815  00000-0 -18625-2 0  9995,2 52686  53.2151  94.8222 0001528  62.4935 210.3791 15.08849654  1305,6917.851,95.437,540.773,538.659,0.0
52686.0,STARLINK-4005,PAYLOAD,2022-09-14 22:00:00,15.0880997,0.0001724,53.2151,93.3275,55.1283,229.3421,0.0019175,0.00030336,0.0,0 STARLINK-4005,1 52686U 22053AG  22257.91667824  .00030336  00000-0  19175-2 0  9990,2 52686  53.2151  93.3275 0001724  55.1283 229.3421 15.08809970 18754,6917.972,95.439,541.03,538.645,0.0
52686.0,STARLINK-4005,PAYLOAD,2022-09-15 14:00:01,15.08848859,0.0001615,53.2152,90.3329,62.1915,245.441,0.00040219,6.12e-05,0.0,0 STARLINK-4005,1 52686U 22053AG  22258.58334491  .00006120  00000-0  40219-3 0  9993,2 52686  53.2152  90.3329 0001615  62.1915 245.4410 15.08848859  1300,6917.853,95.437,540.836,538.601,0.0
52686.0,STARLINK-4005,PAYLOAD,2022-09-15 19:00:04,15.08844058,0.0001621999999999,53.2167,89.3978,59.5278,300.5874,9.058e-05,1.154e-05,0.0,0 STARLINK-4005,1 52686U 22053AG  22258.79171821  .00001154  00000-0  90580-4 0  9991,2 52686  53.2167  89.3978 0001622  59.5278 300.5874 15.08844058 18889,6917.868,95.437,540.855,538.611,0.0
52686.0,STARLINK-4005,PAYLOAD,2022-09-16 12:29:18,15.08840883,0.0001320999999999,53.217,86.1271,61.43899999999999,298.6735,5.6939e-05,6.18e-06,0.0,0 STARLINK-4005,1 52686U 22053AG  22259.52035816  .00000618  00000-0  56939-4 0  9990,2 52686  53.2170  86.1271 0001321  61.4390 298.6735 15.08840883 19377,6917.878000000002,95.437,540.6569999999998,538.8290000000002,0.0
52686.0,STARLINK-4005,PAYLOAD,2022-09-16 18:50:52,15.08824835,0.0001631999999999,53.217,84.9375,58.6457,301.4695,-4.258e-06,-3.56e-06,0.0,0 STARLINK-4005,1 52686U 22053AG  22259.78533122 -.00000356  00000-0 -42580-5 0  9990,2 52686  53.2170  84.9375 0001632  58.6457 301.4695 15.08824835 19035,6917.927,95.439,540.9209999999998,538.663,0.0
52686.0,STARLINK-4005,PAYLOAD,2022-09-17 12:20:07,15.08830539,0.0001673,53.2171,81.6665,58.8004,301.3152,4.7703e-05,4.71e-06,0.0,0 STARLINK-4005,1 52686U 22053AG  22260.51397234  .00000471  00000-0  47703-4 0  9992,2 52686  53.2171  81.6665 0001673  58.8004 301.3152 15.08830539 19526,6917.909000000002,95.438,540.932,538.617,0.0
52686.0,STARLINK-4005,PAYLOAD,2022-09-17 18:41:39,15.08835834,0.0001684,53.2171,80.4771,58.7108,301.4049,4.723e-05,4.64e-06,0.0,0 STARLINK-4005,1 52686U 22053AG  22260.77893037  .00000464  00000-0  47230-4 0  9999,2 52686  53.2171  80.4771 0001684  58.7108 301.4049 15.08835834 19188,6917.893,95.438,540.923,538.5930000000002,0.0
52686.0,STARLINK-4005,PAYLOAD,2022-09-17 20:17:02,15.08836486,0.0001695,53.2171,80.1797,58.6172,301.4986,5.1195e-05,5.27e-06,0.0,0 STARLINK-4005,1 52686U 22053AG  22260.84517021  .00000527  00000-0  51195-4 0  9998,2 52686  53.2171  80.1797 0001695  58.6172 301.4986 15.08836486 19572,6917.891,95.438,540.929,538.5840000000002,0.0
52686.0,STARLINK-4005,PAYLOAD,2022-09-18 12:10:53,15.08842525,0.0001673,53.2166,77.206,59.0199,301.0958,0.00017908,2.563e-05,0.0,0 STARLINK-4005,1 52686U 22053AG  22261.50756851  .00002563  00000-0  17908-3 0  9993,2 52686  53.2166  77.2060 0001673  59.0199 301.0958 15.08842525 19673,6917.873000000001,95.437,540.895,538.58,0.0
52686.0,STARLINK-4005,PAYLOAD,2022-09-18 20:07:49,15.08849351,0.0001766999999999,53.2165,75.7191,57.7664,302.3499,0.00042947,6.555e-05,0.0,0 STARLINK-4005,1 52686U 22053AG  22261.83876861  .00006555  00000-0  42947-3 0  9999,2 52686  53.2165  75.7191 0001767  57.7664 302.3499 15.08849351 19348,6917.852,95.437,540.939,538.494,0.0
52686.0,STARLINK-4005,PAYLOAD,2022-09-19 12:01:40,15.08844733,0.000177,53.2166,72.7455,57.8708,302.2455,0.00013493,1.86e-05,0.0,0 STARLINK-4005,1 52686U 22053AG  22262.50116794  .00001860  00000-0  13493-3 0  9994,2 52686  53.2166  72.7455 0001770  57.8708 302.2455 15.08844733 19826,6917.866,95.437,540.955,538.506,0.0
52686.0,STARLINK-4005,PAYLOAD,2022-09-19 15:12:27,15.08844525,0.0001768,53.2166,72.1507,58.0092,302.1072,0.00015102,2.117e-05,0.0,0 STARLINK-4005,1 52686U 22053AG  22262.63364776  .00002117  00000-0  15102-3 0  9998,2 52686  53.2166  72.1507 0001768  58.0092 302.1072 15.08844525 19467,6917.8669999999975,95.437,540.955,538.508,0.0
52686.0,STARLINK-4005,PAYLOAD,2022-09-20 11:52:27,15.08838142,0.0001675999999999,53.2164,68.2842,60.5,299.6159,-7.2697e-05,-1.445e-05,0.0,0 STARLINK-4005,1 52686U 22053AG  22263.49476674 -.00001445  00000-0 -72697-4 0  9992,2 52686  53.2164  68.2842 0001676  60.5000 299.6159 15.08838142 19978,6917.886,95.438,540.911,538.592,0.0
52686.0,STARLINK-4005,PAYLOAD,2022-09-20 13:27:51,15.08838205,0.0001643,53.2172,67.9868,64.5735,295.5427,5.072e-06,-2.07e-06,0.0,0 STARLINK-4005,1 52686U 22053AG  22263.56101080 -.00000207  00000-0  50720-5 0  9994,2 52686  53.2172  67.9868 0001643  64.5735 295.5427 15.08838205 19988,6917.886,95.438,540.887,538.614,0.0
52686.0,STARLINK-4005,PAYLOAD,2022-09-21 13:18:38,15.08831292,0.0001710999999999,53.217,63.5262,60.8962,299.2201,2.3923e-06,-2.5e-06,0.0,0 STARLINK-4005,1 52686U 22053AG  22264.55461448 -.00000250  00000-0  23923-5 0  9994,2 52686  53.2170  63.5262 0001711  60.8962 299.2201 15.08831292 19758,6917.906999999997,95.438,540.956,538.5880000000002,0.0
52686.0,STARLINK-4005,PAYLOAD,2022-09-22 11:34:02,15.08838024,0.0001681,53.2174,59.3635,60.2604,299.8555,0.00012874,1.761e-05,0.0,0 STARLINK-4005,1 52686U 22053AG  22265.48197092  .00001761  00000-0  12874-3 0  9996,2 52686  53.2174  59.3635 0001681  60.2604 299.8555 15.08838024 19895,6917.886,95.438,540.914,538.589,0.0
52686.0,STARLINK-4005,PAYLOAD,2022-09-22 13:09:25,15.08839372,0.0001704,53.2174,59.0662,59.6373,300.4788,0.00014834,2.074e-05,0.0,0 STARLINK-4005,1 52686U 22053AG  22265.54821046  .00002074  00000-0  14834-3 0  9992,2 52686  53.2174  59.0662 0001704  59.6373 300.4788 15.08839372 20282,6917.882,95.438,540.9259999999998,538.569,0.0
52686.0,STARLINK-4005,PAYLOAD,2022-09-22 17:55:34,15.08842231,0.0001727,53.2167,58.174,58.4246,301.6915,0.0001896999999999,2.732e-05,0.0,0 STARLINK-4005,1 52686U 22053AG  22265.74692918  .00002732  00000-0  18970-3 0  9994,2 52686  53.2167  58.1740 0001727  58.4246 301.6915 15.08842231 20319,6917.874,95.437,540.933,538.544,0.0
52686.0,STARLINK-4005,PAYLOAD,2022-09-23 05:03:16,15.08844073,0.0001751999999999,53.2167,56.0926,58.3475,301.7687,0.00012961,1.775e-05,0.0,0 STARLINK-4005,1 52686U 22053AG  22266.21060892  .00001775  00000-0  12961-3 0  9997,2 52686  53.2167  56.0926 0001752  58.3475 301.7687 15.08844073 20383,6917.868,95.437,540.945,538.521,0.0
52686.0,STARLINK-4005,PAYLOAD,2022-09-23 16:10:58,15.08837973,0.0001738,53.2168,54.011,61.6798,298.4369,5.441100000000001e-05,5.78e-06,0.0,0 STARLINK-4005,1 52686U 22053AG  22266.67429331  .00000578  00000-0  54411-4 0  9991,2 52686  53.2168  54.0110 0001738  61.6798 298.4369 15.08837973 20454,6917.887,95.438,540.9540000000002,538.549,0.0
52686.0,STARLINK-4005,PAYLOAD,2022-09-24 11:15:36,15.08847969,0.0001727,53.2168,50.4423,57.6971,302.4188,0.00020364,2.955e-05,0.0,0 STARLINK-4005,1 52686U 22053AG  22267.46916901  .00002955  00000-0  20364-3 0  9993,2 52686  53.2168  50.4423 0001727  57.6971 302.4188 15.08847969 20571,6917.856,95.437,540.9159999999998,538.526,0.0
